#cP2025  1 11  0  0  0.00000000      96 ORBIT IGS20 HLM  IGS
## 2348 518400.00000000   900.00000000 60686 0.0000000000000
+   32   G01G02G03G04G05G06G07G08G09G10G11G12G13G14G15G16G17
+        G18G19G20G21G22G23G24G25G26G27G28G29G30G31G32  0  0
+          0  0  0  0  0  0  0  0  0  0  0  0  0  0  0  0  0
+          0  0  0  0  0  0  0  0  0  0  0  0  0  0  0  0  0
+          0  0  0  0  0  0  0  0  0  0  0  0  0  0  0  0  0
++         4  2  2  2  2  1  1  2  2  1  2  2  2  2  2  2  2
++         2  2  1  2  2  2  2  2  2  2  2  2  2  2  2  0  0
++         0  0  0  0  0  0  0  0  0  0  0  0  0  0  0  0  0
++         0  0  0  0  0  0  0  0  0  0  0  0  0  0  0  0  0
++         0  0  0  0  0  0  0  0  0  0  0  0  0  0  0  0  0
%c G  cc GPS ccc cccc cccc cccc cccc ccccc ccccc ccccc ccccc
%c cc cc ccc ccc cccc cccc cccc cccc ccccc ccccc ccccc ccccc
%f  1.2500000  1.025000000  0.00000000000  0.000000000000000
%f  0.0000000  0.000000000  0.00000000000  0.000000000000000
%i    0    0    0    0      0      0      0      0         0
%i    0    0    0    0      0      0      0      0         0
/* FINAL ORBIT COMBINATION FROM WEIGHTED AVERAGE OF:        
/* cod emr esa gfz grg jgx jpl mit ngs sio                  
/* REFERENCED TO IGS TIME (IGST) AND TO WEIGHTED MEAN POLE: 
/* PCV:IGS20      OL/AL:FES2014b NONE     Y  ORB:CMB CLK:CMB
*  2025  1 11 11 15  0.00000000
PG01 -15834.519615  -1683.353625  21265.739504 999999.999999 15 13 10           
PG02 -17072.495848  -3251.895858  20657.374469   -270.489605  4  4  2  45       
PG03 -20307.406573   8591.991266  14556.152349    643.900307  5  5  6  73       
PG04 -25195.156768    327.427644  -8622.841217 999999.999999  7  2  4           
PG05  14457.312329   5511.475601 -21770.827649   -198.697734  7  3  4  80       
PG06   5219.693451  25585.719913   4552.500013   -110.692359  4  6  3  91       
PG07  -9866.713508  14154.701569 -19530.734627    -13.603244  5  3  2  83       
PG08 -25962.870962  -6073.248237  -2940.455652    458.604020  7  5  4  90       
PG09 -19906.318590   7921.909217 -15835.988853    524.366591  6  3  2  79       
PG10   7028.802051 -21683.936293  13577.248489   -272.196751  4  1  3  44       
PG11  12125.064419  22394.322782  -7608.057717   -751.955506  6  4  5  89       
PG12  20427.735013  -4690.438887  15999.016479   -563.814341  5  5  2  78       
PG13  20872.315645  13926.544655  -9306.232465    693.126227  7  2  5  63       
PG14 -10396.097445  22224.122603   9907.524727    577.909150  5  2  4  40       
PG15  26348.446513   3013.484995  -3018.163889    250.357001  6  3  4  69       
PG16 -10283.366929 -11465.378595 -21988.258012    -80.575101  7  4  5  98       
PG17  -4978.465933  14501.732550  22101.853727    479.255955  5  3  2  84       
PG18   8289.208582 -16381.244606 -19076.352658   -658.237315  6  5  3  86       
PG19   7051.381933  16372.489219  19687.751351    584.893172  5  2  3  86       
PG20   6337.792271  16592.396068 -19700.066005    367.162935  6  2  3  66       
PG21 -18113.600707 -10870.227596  17113.313440    100.740889  5  3  2  77       
PG22  -4569.674533  20633.152706  16657.787319    -91.703411  5  5  3  81       
PG23  16818.811359 -20391.540359    -88.719996    401.708750  5  5  3  67       
PG24  17782.079208   5642.748678  18578.802849   -465.076974  5  2  4  80       
PG25  19530.147484 -16533.939104   6218.449737    496.911609  5  4  2  79       
PG26  -2446.846382 -19452.119828 -17930.785938    -43.872291  5  5  4  90       
PG27 -19729.562098 -12853.699710 -13015.961934    -33.189667  7  5  7 106       
PG28  -4856.163187 -25304.970866   6429.323471   -532.586385  5  4  3  51       
PG29  20350.511368  -5965.607363 -16113.660771   -548.094875  8  5  6  18       
PG30  -1546.532939  23223.507239 -12392.299945   -241.566042  5  5  4  64       
PG31 -10214.217677 -24113.553024  -3276.505960   -218.114301  5  3  5  83       
PG32  -1149.711599 -15549.858775  21753.593963   -543.587397  6  4  3  73       
*  2025  1 11 11 30  0.00000000
PG01 -16444.012022  -3992.657528  20480.777719 999999.999999 15 13  9           
PG02 -17964.352309  -5255.407815  19459.464883   -270.481541  3  4  2  65       
PG03 -19264.894259   7106.040627  16616.173535    643.906975  5  5  6  62       
PG04 -25969.725013    -40.761668  -5926.786965 999999.999999  8  2  5           
PG05  13014.060797   7511.977701 -22077.633165   -198.698957  7  3  3  85       
PG06   4824.413419  25012.774529   7363.440532   -110.716687  4  6  3  87       
PG07 -10846.927561  11947.253011 -20478.873999    -13.602831  5  3  2  84       
PG08 -25463.932402  -6259.827335  -5691.737821    458.610963  8  4  4  90       
PG09 -21543.596388   7523.465140 -13742.586429    524.380166  6  4  2  83       
PG10   8034.317230 -22655.603175  11147.641135   -272.211288  4  1  2  58       
PG11  12135.343762  23146.500323  -4865.340644   -751.954753  6  4  4  84       
PG12  19199.330699  -3122.518366  17776.505070   -563.816264  5  5  3  80       
PG13  19705.251474  13744.311149 -11821.503014    693.127453  7  1  4  66       
PG14 -11258.439380  22789.255018   7310.312515    577.915645  5  3  3  61       
PG15  25904.658233   3311.757340  -5760.981467    250.361008  7  3  4  65       
PG16  -8570.196654 -13185.404585 -21713.121041    -80.566787  7  4  5  85       
PG17  -7340.208712  13966.913424  21798.210263    479.240465  5  4  2  76       
PG18   9160.917411 -14288.631933 -20336.485298   -658.236141  6  5  4  81       
PG19   4782.490600  15843.392743  20727.805547    584.897312  5  3  3  89       
PG20   5179.521548  18456.407760 -18351.608312    367.162579  6  2  3  75       
PG21 -18801.168301 -12481.650125  15216.730122    100.741677  5  2  1  70       
PG22  -5877.550294  21760.648868  14674.005011    -91.705179  5  5  3  60       
PG23  16875.114007 -20118.817253  -2993.834314    401.715533  6  5  3  62       
PG24  18589.815913   7612.555483  17098.692872   -465.073522  5  3  3  82       
PG25  19203.340139 -15628.735162   8882.659154    496.911099  5  4  2  82       
PG26  -1174.685820 -20941.977722 -16251.940930    -43.885986  5  5  4  67       
PG27 -18171.025435 -12789.744285 -15178.949075    -33.189320  7  5  7 102       
PG28  -4291.908229 -24576.601292   9097.342287   -532.595140  5  4  2  78       
PG29  21979.699805  -5415.488817 -14038.758624   -548.091895  8  4  6  36       
PG30  -2373.764480  21848.726288 -14569.986897   -241.558464  5  5  4  57       
PG31  -9993.884194 -24391.781131   -423.485312   -218.113734  5  3  5  73       
PG32   1275.708451 -15202.196003  21975.569888   -543.581244  6  4  3  55       
*  2025  1 11 11 45  0.00000000
PG01 -17135.714083  -6164.884080  19343.675809 999999.999999 15 12  8           
PG02 -18890.172966  -7075.864356  17942.764893   -270.473329  3  4  3   1       
PG03 -18178.520327   5386.282764  18385.509095    643.913614  5  5  6  70       
PG04 -26455.292117   -325.611067  -3129.599011 999999.999999  8  2  6           
PG05  11674.986315   9600.348596 -22010.739246   -198.699742  7  3  3  78       
PG06   4273.713651  24176.458168  10047.034075   -110.741004  4  5  3  69       
PG07 -11968.295444   9711.742827 -21054.553906    -13.602490  5  3  2  85       
PG08 -24673.928091  -6453.425718  -8348.004655    458.617996  8  5  4  78       
PG09 -22951.121816   7229.001855 -11414.740544    524.393667  6  4  1  79       
PG10   8818.918274 -23449.203846   8524.834408   -272.225834  4  1  2  52       
PG11  12068.774544  23604.140201  -2039.101806   -751.953968  5  4  4  88       
PG12  17934.416518  -1349.088281  19240.754347   -563.818174  5  4  3  77       
PG13  18267.523096  13561.238530 -14138.198271    693.128575  6  1  4  58       
PG14 -11911.611444  23154.353465   4585.701691    577.922109  5  3  2  65       
PG15  25176.524189   3645.422177  -8406.707541    250.365070  7  3  4  77       
PG16  -6979.925674 -14958.357618 -21074.686743    -80.558040  7  4  5  83       
PG17  -9673.215893  13569.343812  21133.867570    479.224812  5  4  3  72       
PG18  10192.066812 -12134.383648 -21243.865670   -658.234971  7  5  5  75       
PG19   2388.541005  15414.850641  21409.732714    584.901309  5  3  3  73       
PG20   4192.612520  20222.020391 -16686.546781    367.162319  5  2  3  29       
PG21 -19464.928293 -13858.101514  13076.749818    100.742770  5  3  2  63       
PG22  -6972.166242  22778.552971  12447.020885    -91.707304  5  5  4  60       
PG23  16762.402882 -19577.064639  -5846.651500    401.722280  6  5  3  64       
PG24  19395.950487   9375.231993  15318.249928   -465.069998  5  3  3  88       
PG25  18754.645726 -14462.591623  11389.474341    496.910550  5  3  3  83       
PG26    -75.521717 -22315.881897 -14292.623727    -43.899633  5  5  4  46       
PG27 -16385.332800 -12788.706071 -17090.753755    -33.188945  6  5  7  91       
PG28  -3561.072499 -23615.348267  11608.702210   -532.603912  5  4  3  64       
PG29  23391.704154  -4996.034700 -11724.330196   -548.088942  9  4  5  32       
PG30  -3361.390391  20302.490868 -16491.433858   -241.550844  5  4  4  65       
PG31  -9658.077147 -24381.670076   2436.962728   -218.112940  5  2  5  55       
PG32   3722.292384 -14983.818613  21827.467305   -543.575083  5  4  2  66       
EOF
